AMC-1 (GE-1)            
1 24315U 96054A   22249.31924236  .00000050  00000+0  00000+0 0  9991
2 24315   5.8059  72.4550 0003246  92.0245 164.9378  1.00271429 95181
AMC-3 (GE-3)            
1 24936U 97050A   22249.49585061 -.00000275  00000+0  00000+0 0  9995
2 24936   4.7379  78.7149 0003056  87.1679 286.1900  1.00270700 38604
ASTRA 1G                
1 25071U 97076A   22249.17688241  .00000102  00000+0  00000+0 0  9991
2 25071   6.4243  67.6588 0003509  94.1903 266.4749  1.00272345 90673
ASTRA 2A                
1 25462U 98050A   22249.44989602  .00000054  00000+0  00000+0 0  9999
2 25462   3.6008  84.6968 0002775  86.9216  33.0526  1.00270362 32502
AMC-4 (GE-4)            
1 25954U 99060A   22249.48338097  .00000072  00000+0  00000+0 0  9997
2 25954   1.7181  90.9170 0003097  76.1143 217.6350  1.00271324 29715
NSS-11 (AAP-1)          
1 26554U 00059A   22249.53626487  .00000010  00000+0  00000+0 0  9995
2 26554   0.0515 302.5894 0002479 227.8450 184.2369  1.00272983 27459
AMC-6 (GE-6)            
1 26580U 00067A   22249.48250896  .00000089  00000+0  00000+0 0  9990
2 26580   0.0546 296.9706 0003112 240.5680 202.7044  1.00270799 80078
ASTRA 2D                
1 26638U 00081A   22249.15620521  .00000116  00000+0  00000+0 0  9991
2 26638   7.4598  59.7481 0001925 142.6669 222.7087  1.00274098 39073
AMC-8 (GE-8)            
1 26639U 00081B   22249.48329375  .00000072  00000+0  00000+0 0  9992
2 26639   2.6453  87.7173 0002524  40.6700 256.1583  1.00273101 79495
ASTRA 2C                
1 26853U 01025A   22249.48948956 -.00000274  00000+0  00000+0 0  9996
2 26853   4.7621  78.5200 0002876  84.3673 286.3661  1.00275576 77742
ASTRA 3A                
1 27400U 02015B   22249.42120709 -.00000216  00000+0  00000+0 0  9993
2 27400   7.5598  58.6252 0002016 118.7755 232.9060  1.00268442 74886
NSS-7                   
1 27414U 02019A   22249.36269565 -.00000172  00000+0  00000+0 0  9990
2 27414   6.0837  70.6373 0002264 108.9085 276.4652  1.00271721 74739
NSS-6                   
1 27603U 02057A   22249.55451380  .00000092  00000+0  00000+0 0  9991
2 27603   1.8096  90.7070 0003534  77.7704 207.2474  1.00273996 72208
AMC-11 (GE-11)          
1 28252U 04017A   22249.48416576  .00000054  00000+0  00000+0 0  9998
2 28252   0.0549 302.2417 0002756 217.5816 229.0227  1.00271702 67049
AMC-15                  
1 28446U 04041A   22249.50282928 -.00000104  00000+0  00000+0 0  9992
2 28446   0.0560 303.0144 0003128 203.1593 275.3672  1.00271333 65518
NSS-10 (AMC-12)         
1 28526U 05003A   22249.43097354 -.00000266  00000+0  00000+0 0  9998
2 28526   2.9812  86.4737 0003090  63.8275 312.9004  1.00275756 64489
ASTRA 1KR               
1 29055U 06012A   22249.40188233  .00000105  00000+0  00000+0 0  9992
2 29055   0.0716 277.1877 0004129 273.7802 318.3735  1.00273575 31892
AMC-18                  
1 29644U 06054B   22249.49367060 -.00000231  00000+0  00000+0 0  9999
2 29644   0.0540 296.6704 0002958 236.1222 267.4908  1.00270867 57708
ASTRA 1L                
1 31306U 07016A   22249.40188233  .00000105  00000+0  00000+0 0  9999
2 31306   0.0817 301.9359 0002298 270.9530 296.4606  1.00272787 31177
ASTRA 4A (SIRIUS 4)     
1 32299U 07057A   22249.36766608  .00000018  00000+0  00000+0 0  9992
2 32299   0.0519 301.4224 0002946 219.4014 321.7846  1.00270176 37836
AMC-21                  
1 33275U 08038B   22249.48529936  .00000021  00000+0  00000+0 0  9995
2 33275   0.0542 300.5596 0002682 227.0449 227.7540  1.00271201 51655
ASTRA 1M                
1 33436U 08057A   22249.29851618  .00000106  00000+0  00000+0 0  9993
2 33436   0.0085 218.8703 0005428 299.8117 313.3526  1.00275056 31899
CIEL-2                  
1 33453U 08063A   22249.48451456  .00000043  00000+0  00000+0 0  9996
2 33453   0.0393 255.1109 0003090 267.2854 228.7283  1.00271666 50291
NSS-9                   
1 33749U 09008A   22249.54471611  .00000056  00000+0  00000+0 0  9990
2 33749   0.0552 302.4968 0002335 212.3610 209.9109  1.00270851 49692
SES-7 (PROTOSTAR 2)     
1 34941U 09027A   22249.50231198 -.00000361  00000+0  00000+0 0  9996
2 34941   0.0184 108.7862 0001479  97.2097  68.6798  1.00271316 48785
NSS-12                  
1 36032U 09058A   22249.48273179  .00000056  00000+0  00000+0 0  9995
2 36032   0.0493 299.1328 0002975 232.3442  44.8575  1.00272223 47080
SES-1                   
1 36516U 10016A   22249.45529988 -.00000129  00000+0  00000+0 0  9999
2 36516   0.0531 298.1875 0002522 223.7384 246.4958  1.00271606 45204
ASTRA 3B                
1 36581U 10021A   22249.39632781  .00000122  00000+0  00000+0 0  9998
2 36581   0.0606  56.7143 0003368 115.5595 339.3715  1.00269871 45042
SES-3                   
1 37748U 11035A   22249.48965939 -.00000117  00000+0  00000+0 0  9999
2 37748   0.0567 304.8819 0002822 224.8200 249.1342  1.00271220 40750
ASTRA 1N                
1 37775U 11041A   22249.40188233  .00000105  00000+0  00000+0 0  9998
2 37775   0.0549 340.8782 0002791 132.9459  35.5240  1.00272942 30697
SES-2                   
1 37809U 11049A   22249.47681824 -.00000211  00000+0  00000+0 0  9994
2 37809   0.0514 298.2023 0002958 220.9820 271.0164  1.00271273 40123
QUETZSAT 1              
1 37826U 11054A   22249.49489142 -.00000256  00000+0  00000+0 0  9999
2 37826   0.0545 299.5707 0003001 216.3566 290.7994  1.00270755 36055
SES-4                   
1 38087U 12007A   22249.42410464 -.00000183  00000+0  00000+0 0  9991
2 38087   0.0078 103.5027 0002457  74.5699 298.0957  1.00270847 38403
SES-5                   
1 38652U 12036A   22249.40743941  .00000019  00000+0  00000+0 0  9995
2 38652   0.0658 296.8571 0002151 219.4663 340.8129  1.00271158 30659
ASTRA 2F                
1 38778U 12051A   22249.22884309  .00000136  00000+0  00000+0 0  9995
2 38778   0.0798 249.3714 0004133 309.6113 256.8859  1.00273274 27281
SES-6                   
1 39172U 13026A   22249.43045035 -.00000276  00000+0  00000+0 0  9991
2 39172   0.0561 302.0397 0002141 212.4507 305.4901  1.00271393 33890
O3B FM5                 
1 39188U 13031A   22249.03308273 -.00000023  00000+0  00000+0 0  9996
2 39188   0.0596  19.5209 0002586 148.7582 191.7272  5.00115232167993
O3B FM4                 
1 39189U 13031B   22249.48890213 -.00000024  00000+0  00000+0 0  9997
2 39189   0.0543 351.5237 0002548 176.8211 191.6611  5.00115747168038
O3B FM2                 
1 39190U 13031C   22249.38044639 -.00000023  00000+0  00000+0 0  9990
2 39190   0.0558 346.5149 0002577 180.9354 192.5562  5.00116788168084
O3B PFM                 
1 39191U 13031D   22249.40672153 -.00000023  00000+0  00000+0 0  9992
2 39191   0.0551  11.5585 0002646 154.0936 194.3555  5.00115600167630
ASTRA 2E                
1 39285U 13056A   22249.39632781  .00000135  00000+0  00000+0 0  9997
2 39285   0.0629  26.8136 0002034 146.4091 343.3636  1.00272346 32600
SES-8                   
1 39460U 13071A   22249.49797961 -.00000285  00000+0  00000+0 0  9999
2 39460   0.0483 262.4099 0002583 228.2448 129.1829  1.00271787 30591
ASTRA 5B                
1 39617U 14011B   22249.39632781  .00000140  00000+0  00000+0 0  9994
2 39617   0.0453 345.3801 0004041 181.2609 352.9865  1.00269933 30835
O3B FM3                 
1 40079U 14038A   22249.26159487 -.00000023  00000+0  00000+0 0  9991
2 40079   0.0550 359.6195 0004963 155.9685 204.4357  5.00115292144000
O3B FM7                 
1 40080U 14038B   22248.60799510 -.00000022  00000+0  00000+0 0  9996
2 40080   0.0582 356.5570 0001442 212.3646 151.0711  5.00115390148817
O3B FM6                 
1 40081U 14038C   22248.23458987 -.00000021  00000+0  00000+0 0  9995
2 40081   0.0542 358.9449 0002687 166.1014 194.9626  5.00115321148749
O3B FM8                 
1 40082U 14038D   22249.28797572 -.00000023  00000+0  00000+0 0  9990
2 40082   0.0530 355.6587 0002656 167.5284 196.8218  5.00115603148903
O3B FM10                
1 40348U 14083A   22249.31402029 -.00000023  00000+0  00000+0 0  9999
2 40348   0.0510   8.1427 0002622 157.7951 194.0697  5.00115084140865
O3B FM11                
1 40349U 14083B   22249.32748119 -.00000023  00000+0  00000+0 0  9994
2 40349   0.0557   8.2329 0002401 172.5297 179.2372  5.00115330140872
O3B FM12                
1 40350U 14083C   22249.15479569 -.00000023  00000+0  00000+0 0  9997
2 40350   0.0552   7.4823 0002724 161.6883 190.8355  5.00115203140887
O3B FM9                 
1 40351U 14083D   22249.38159911 -.00000023  00000+0  00000+0 0  9999
2 40351   0.0568   8.6135 0002587 158.6304 192.7628  5.00116078141049
ASTRA 2G                
1 40364U 14089A   22249.39632781  .00000135  00000+0  00000+0 0  9994
2 40364   0.0500 327.0645 0003180 128.5572  60.6963  1.00270387 28135
SES-9                   
1 41380U 16013A   22249.31656667 -.00000360  00000+0  00000+0 0  9994
2 41380   0.0493 290.7290 0002023 193.2945  83.6279  1.00270289 23608
SES-10                  
1 42432U 17017A   22249.49689703 -.00000287  00000+0  00000+0 0  9992
2 42432   0.0235 125.1257 0002712  35.0386 297.3888  1.00267124 19915
SES-15                  
1 42709U 17026A   22248.98224051  .00000047  00000+0  00000+0 0  9996
2 42709   0.0333 349.6722 0000516 146.3136  73.5142  1.00268448 20302
SES-11 (ECHOSTAR 105)   
1 42967U 17063A   22249.50298152 -.00000104  00000+0  00000+0 0  9990
2 42967   0.0513 288.5825 0003097 243.3501 249.7507  1.00270983 17882
SES-14                  
1 43175U 18012B   22249.44979837 -.00000293  00000+0  00000+0 0  9995
2 43175   0.0351 292.8313 0001141 218.0796 309.0357  1.00270657 17226
O3B FM15                
1 43231U 18024A   22249.44753309 -.00000024  00000+0  00000+0 0  9997
2 43231   0.0476   8.5305 0002906 159.9384 191.5378  5.00115946 82172
O3B FM16                
1 43232U 18024B   22249.10113853 -.00000023  00000+0  00000+0 0  9994
2 43232   0.0437  10.3621 0002880 158.1121 191.5327  5.00115811 81908
O3B FM14                
1 43233U 18024C   22249.34065290 -.00000023  00000+0  00000+0 0  9992
2 43233   0.0421  10.1812 0002710 160.3140 189.5101  5.00115209 81920
O3B FM13                
1 43234U 18024D   22249.19426797 -.00000023  00000+0  00000+0 0  9999
2 43234   0.0547  31.9529 0003642 143.6676 184.3829  5.00114981 82038
SES-12                  
1 43488U 18049A   22249.31395065 -.00000284  00000+0  00000+0 0  9993
2 43488   0.0213  75.2982 0001374 150.7164 327.3917  1.00271427 15582
O3B FM20                
1 44112U 19020A   22249.16747614 -.00000023  00000+0  00000+0 0  9993
2 44112   0.0508   7.3967 0003008 167.6041 185.0024  5.00115398 62533
O3B FM19                
1 44113U 19020B   22248.59458787 -.00000022  00000+0  00000+0 0  9999
2 44113   0.0672  24.0727 0001876 154.0375 181.8912  5.00115329 62362
O3B FM17                
1 44114U 19020C   22249.27478834 -.00000023  00000+0  00000+0 0  9992
2 44114   0.0388 346.9238 0003018 181.5949 191.4883  5.00115479 62496
O3B FM18                
1 44115U 19020D   22247.02251712 -.00000018  00000+0  00000+0 0  9992
2 44115   0.0509   7.7035 0002878 155.0851 197.2227  5.00115718 62504
SES-17                  
1 49332U 21095A   22249.49689703 -.00000287  00000+0  00000+0 0  9999
2 49332   0.0120 121.2248 0001222  31.4170 304.7008  1.00269172  4003
SES-22                  
1 52933U 22071A   22249.48329375  .00000073  00000+0  00000+0 0  9992
2 52933   0.0474 277.5203 0002612 266.5606 200.4640  1.00272652   716
